0 BREEZE-M DEB
1 38612U 08011BK  13276.19383229 -.00001453  00000-0 -64530-1 0  2140
2 38612 047.6233 185.7459 6415776 270.6097 181.0002 03.00408169 29535
0 BREEZE-M DEB
1 38612U 08011BK  13280.32041601 -.00001278  00000-0 -57959-1 0  2158
2 38612 047.6215 184.3412 6414548 271.9154 323.7472 03.00398601 29651
0 BREEZE-M DEB
1 38612U 08011BK  13289.31440709 -.00000975  00000-0 -45212-1 0  2161
2 38612 047.6186 181.2882 6412362 274.7511 329.9192 03.00377269 29929
